{"type": "FeatureCollection", "features": [ {"type": "Feature", "properties": {"norad_id": 33153, "name": "INTELSAT 25 (IS-25)", "group": "intelsat", "lat": -0.6673320618112583, "lon": -80.90126943619723, "alt_km": 35766.550022257965, "timestamp": "2025-12-21T14:40:47.578347+00:00", "meta": {"OBJECT_NAME": "INTELSAT 25 (IS-25)", "OBJECT_ID": "2008-034A", "EPOCH": "2025-12-21T04:15:38.566080", "MEAN_MOTION": 1.00269824, "ECCENTRICITY": 0.0004816, "INCLINATION": 2.2481, "RA_OF_ASC_NODE": 82.5595, "ARG_OF_PERICENTER": 188.3573, "MEAN_ANOMALY": 211.4785, "EPHEMERIS_TYPE": 0, "CLASSIFICATION_TYPE": "U", "NORAD_CAT_ID": 33153, "ELEMENT_SET_NO": 999, "REV_AT_EPOCH": 6391, "BSTAR": 0, "MEAN_MOTION_DOT": -2.03e-06, "MEAN_MOTION_DDOT": 0}, "tle": {"line1": "1 33153U 08034A   25355.17752970 -.00000203  00000+0  00000+0 0  9992", "line2": "2 33153   2.2481  82.5595 0004816 188.3573 211.4785  1.00269824 63911"}}, "geometry": {"type": "Point", "coordinates": [-80.90126943619723, -0.6673320618112583]}}, {"type": "Feature", "properties": {"norad_id": 33376, "name": "GALAXY 19 (G-19)", "group": "intelsat", "lat": -0.030115236277257956, "lon": -146.40846995474607, "alt_km": 35781.20341184924, "timestamp": "2025-12-21T14:40:47.578360+00:00", "meta": {"OBJECT_NAME": "GALAXY 19 (G-19)", "OBJECT_ID": "2008-045A", "EPOCH": "2025-12-21T06:31:28.348032", "MEAN_MOTION": 1.00271314, "ECCENTRICITY": 0.00025355, "INCLINATION": 0.0168, "RA_OF_ASC_NODE": 317.9619, "ARG_OF_PERICENTER": 317.7913, "MEAN_ANOMALY": 175.208, "EPHEMERIS_TYPE": 0, "CLASSIFICATION_TYPE": "U", "NORAD_CAT_ID": 33376, "ELEMENT_SET_NO": 999, "REV_AT_EPOCH": 6312, "BSTAR": 0, "MEAN_MOTION_DOT": -1.16e-06, "MEAN_MOTION_DDOT": 0}, "tle": {"line1": "1 33376U 08045A   25355.27185588 -.00000116  00000+0  00000+0 0  9990", "line2": "2 33376   0.0168 317.9619 0002535 317.7913 175.2080  1.00271314 63125"}}, "geometry": {"type": "Point", "coordinates": [-146.40846995474607, -0.030115236277257956]}}, {"type": "Feature", "properties": {"norad_id": 35493, "name": "FM-5", "group": "intelsat", "lat": -0.031316105330386215, "lon": -135.4986312765751, "alt_km": 35781.8297962352, "timestamp": "2025-12-21T14:40:47.578372+00:00", "meta": {"OBJECT_NAME": "FM-5", "OBJECT_ID": "2009-034A", "EPOCH": "2025-12-21T06:38:59.076096", "MEAN_MOTION": 1.00277485, "ECCENTRICITY": 0.00010839, "INCLINATION": 0.0244, "RA_OF_ASC_NODE": 288.4385, "ARG_OF_PERICENTER": 242.331, "MEAN_ANOMALY": 292.9415, "EPHEMERIS_TYPE": 0, "CLASSIFICATION_TYPE": "U", "NORAD_CAT_ID": 35493, "ELEMENT_SET_NO": 999, "REV_AT_EPOCH": 4486, "BSTAR": 0, "MEAN_MOTION_DOT": -1.78e-06, "MEAN_MOTION_DDOT": 0}, "tle": {"line1": "1 35493U 09034A   25355.27707264 -.00000178  00000+0  00000+0 0  9990", "line2": "2 35493   0.0244 288.4385 0001083 242.3310 292.9415  1.00277485 44869"}}, "geometry": {"type": "Point", "coordinates": [-135.4986312765751, -0.031316105330386215]}}, {"type": "Feature", "properties": {"norad_id": 36097, "name": "INTELSAT 14 (IS-14)", "group": "intelsat", "lat": -0.03629494718679404, "lon": -94.38335283173384, "alt_km": 35776.37649090558, "timestamp": "2025-12-21T14:40:47.578384+00:00", "meta": {"OBJECT_NAME": "INTELSAT 14 (IS-14)", "OBJECT_ID": "2009-064A", "EPOCH": "2025-12-21T06:08:09.955392", "MEAN_MOTION": 1.00270589, "ECCENTRICITY": 0.00024766, "INCLINATION": 0.0106, "RA_OF_ASC_NODE": 13.222, "ARG_OF_PERICENTER": 268.4829, "MEAN_ANOMALY": 215.4218, "EPHEMERIS_TYPE": 0, "CLASSIFICATION_TYPE": "U", "NORAD_CAT_ID": 36097, "ELEMENT_SET_NO": 999, "REV_AT_EPOCH": 5882, "BSTAR": 0, "MEAN_MOTION_DOT": -2.51e-06, "MEAN_MOTION_DDOT": 0}, "tle": {"line1": "1 36097U 09064A   25355.25567078 -.00000251  00000+0  00000+0 0  9991", "line2": "2 36097   0.0106  13.2220 0002476 268.4829 215.4218  1.00270589 58820"}}, "geometry": {"type": "Point", "coordinates": [-94.38335283173384, -0.03629494718679404]}}, {"type": "Feature", "properties": {"norad_id": 36106, "name": "INTELSAT 15 (IS-15)", "group": "intelsat", "lat": 0.02941893768760473, "lon": 35.803439582095756, "alt_km": 35789.90876697792, "timestamp": "2025-12-21T14:40:47.578396+00:00", "meta": {"OBJECT_NAME": "INTELSAT 15 (IS-15)", "OBJECT_ID": "2009-067A", "EPOCH": "2025-12-20T23:54:28.168704", "MEAN_MOTION": 1.00271811, "ECCENTRICITY": 0.00021624, "INCLINATION": 0.0161, "RA_OF_ASC_NODE": 343.3578, "ARG_OF_PERICENTER": 298.0159, "MEAN_ANOMALY": 252.2279, "EPHEMERIS_TYPE": 0, "CLASSIFICATION_TYPE": "U", "NORAD_CAT_ID": 36106, "ELEMENT_SET_NO": 999, "REV_AT_EPOCH": 3944, "BSTAR": 0, "MEAN_MOTION_DOT": -1.62e-06, "MEAN_MOTION_DDOT": 0}, "tle": {"line1": "1 36106U 09067A   25354.99615936 -.00000162  00000+0  00000+0 0  9993", "line2": "2 36106   0.0161 343.3578 0002162 298.0159 252.2279  1.00271811 39444"}}, "geometry": {"type": "Point", "coordinates": [35.803439582095756, 0.02941893768760473]}}, {"type": "Feature", "properties": {"norad_id": 36131, "name": "DIRECTV 12", "group": "intelsat", "lat": 0.0009791479867267664, "lon": -152.09955225266444, "alt_km": 35787.64790933255, "timestamp": "2025-12-21T14:40:47.578414+00:00", "meta": {"OBJECT_NAME": "DIRECTV 12", "OBJECT_ID": "2009-075A", "EPOCH": "2025-12-20T21:18:05.647104", "MEAN_MOTION": 1.00270531, "ECCENTRICITY": 3.37e-05, "INCLINATION": 0.0166, "RA_OF_ASC_NODE": 99.1337, "ARG_OF_PERICENTER": 257.3135, "MEAN_ANOMALY": 310.0782, "EPHEMERIS_TYPE": 0, "CLASSIFICATION_TYPE": "U", "NORAD_CAT_ID": 36131, "ELEMENT_SET_NO": 999, "REV_AT_EPOCH": 4476, "BSTAR": 0, "MEAN_MOTION_DOT": -8e-07, "MEAN_MOTION_DDOT": 0}, "tle": {"line1": "1 36131U 09075A   25354.88756536 -.00000080  00000+0  00000+0 0  9999", "line2": "2 36131   0.0166  99.1337 0000337 257.3135 310.0782  1.00270531 44761"}}, "geometry": {"type": "Point", "coordinates": [-152.09955225266444, 0.0009791479867267664]}}, {"type": "Feature", "properties": {"norad_id": 36397, "name": "INTELSAT 16 (IS-16)", "group": "intelsat", "lat": -0.033121617977289936, "lon": -125.58517653895596, "alt_km": 35780.10547624674, "timestamp": "2025-12-21T14:40:47.578425+00:00", "meta": {"OBJECT_NAME": "INTELSAT 16 (IS-16)", "OBJECT_ID": "2010-006A", "EPOCH": "2025-12-21T05:59:18.303360", "MEAN_MOTION": 1.00271275, "ECCENTRICITY": 0.0001825, "INCLINATION": 0.0124, "RA_OF_ASC_NODE": 352.4988, "ARG_OF_PERICENTER": 279.1643, "MEAN_ANOMALY": 192.0446, "EPHEMERIS_TYPE": 0, "CLASSIFICATION_TYPE": "U", "NORAD_CAT_ID": 36397, "ELEMENT_SET_NO": 999, "REV_AT_EPOCH": 5787, "BSTAR": 0, "MEAN_MOTION_DOT": -2.22e-06, "MEAN_MOTION_DDOT": 0}, "tle": {"line1": "1 36397U 10006A   25355.24951740 -.00000222  00000+0  00000+0 0  9992", "line2": "2 36397   0.0124 352.4988 0001825 279.1643 192.0446  1.00271275 57872"}}, "geometry": {"type": "Point", "coordinates": [-125.58517653895596, -0.033121617977289936]}}, {"type": "Feature", "properties": {"norad_id": 37185, "name": "XM-5", "group": "intelsat", "lat": -0.06348369313205955, "lon": -164.55818867828617, "alt_km": 35780.19388861265, "timestamp": "2025-12-21T14:40:47.578437+00:00", "meta": {"OBJECT_NAME": "XM-5", "OBJECT_ID": "2010-053A", "EPOCH": "2025-12-20T21:14:35.981088", "MEAN_MOTION": 1.00269291, "ECCENTRICITY": 0.0002244, "INCLINATION": 0.0661, "RA_OF_ASC_NODE": 270.9496, "ARG_OF_PERICENTER": 238.8649, "MEAN_ANOMALY": 143.3591, "EPHEMERIS_TYPE": 0, "CLASSIFICATION_TYPE": "U", "NORAD_CAT_ID": 37185, "ELEMENT_SET_NO": 999, "REV_AT_EPOCH": 5569, "BSTAR": 0, "MEAN_MOTION_DOT": 0, "MEAN_MOTION_DDOT": 0}, "tle": {"line1": "1 37185U 10053A   25354.88513867  .00000000  00000+0  00000+0 0  9996", "line2": "2 37185   0.0661 270.9496 0002244 238.8649 143.3591  1.00269291 55699"}}, "geometry": {"type": "Point", "coordinates": [-164.55818867828617, -0.06348369313205955]}}, {"type": "Feature", "properties": {"norad_id": 37238, "name": "INTELSAT 17 (IS-17)", "group": "intelsat", "lat": -0.019746769945224733, "lon": 16.624122859709114, "alt_km": 35785.09965474348, "timestamp": "2025-12-21T14:40:47.578450+00:00", "meta": {"OBJECT_NAME": "INTELSAT 17 (IS-17)", "OBJECT_ID": "2010-065B", "EPOCH": "2025-12-20T23:48:58.695264", "MEAN_MOTION": 1.00271515, "ECCENTRICITY": 0.00028196, "INCLINATION": 0.0311, "RA_OF_ASC_NODE": 70.1295, "ARG_OF_PERICENTER": 221.6381, "MEAN_ANOMALY": 221.2687, "EPHEMERIS_TYPE": 0, "CLASSIFICATION_TYPE": "U", "NORAD_CAT_ID": 37238, "ELEMENT_SET_NO": 999, "REV_AT_EPOCH": 5146, "BSTAR": 0, "MEAN_MOTION_DOT": 0, "MEAN_MOTION_DDOT": 0}, "tle": {"line1": "1 37238U 10065B   25354.99234601  .00000000  00000+0  00000+0 0  9996", "line2": "2 37238   0.0311  70.1295 0002819 221.6381 221.2687  1.00271515 51463"}}, "geometry": {"type": "Point", "coordinates": [16.624122859709114, -0.019746769945224733]}}, {"type": "Feature", "properties": {"norad_id": 37392, "name": "INTELSAT 28 (IS-28)", "group": "intelsat", "lat": -0.3513446573242898, "lon": -81.08226636594242, "alt_km": 35771.139654171304, "timestamp": "2025-12-21T14:40:47.578461+00:00", "meta": {"OBJECT_NAME": "INTELSAT 28 (IS-28)", "OBJECT_ID": "2011-016A", "EPOCH": "2025-12-21T06:11:54.596256", "MEAN_MOTION": 1.00269634, "ECCENTRICITY": 0.00037012, "INCLINATION": 1.3453, "RA_OF_ASC_NODE": 84.9654, "ARG_OF_PERICENTER": 188.7423, "MEAN_ANOMALY": 237.6496, "EPHEMERIS_TYPE": 0, "CLASSIFICATION_TYPE": "U", "NORAD_CAT_ID": 37392, "ELEMENT_SET_NO": 999, "REV_AT_EPOCH": 5150, "BSTAR": 0, "MEAN_MOTION_DOT": -2.03e-06, "MEAN_MOTION_DDOT": 0}, "tle": {"line1": "1 37392U 11016A   25355.25827079 -.00000203  00000+0  00000+0 0  9997", "line2": "2 37392   1.3453  84.9654 0003701 188.7423 237.6496  1.00269634 51501"}}, "geometry": {"type": "Point", "coordinates": [-81.08226636594242, -0.3513446573242898]}}]}